COMMENT,ORIGINATOR,NORAD_CAT_ID,OBJECT_NAME,OBJECT_TYPE,CLASSIFICATION_TYPE,INTLDES,EPOCH,EPOCH_MICROSECONDS,MEAN_MOTION,ECCENTRICITY,INCLINATION,RA_OF_ASC_NODE,ARG_OF_PERICENTER,MEAN_ANOMALY,EPHEMERIS_TYPE,ELEMENT_SET_NO,REV_AT_EPOCH,BSTAR,MEAN_MOTION_DOT,MEAN_MOTION_DDOT,FILE,TLE_LINE0,TLE_LINE1,TLE_LINE2,OBJECT_ID,OBJECT_NUMBER,SEMIMAJOR_AXIS,PERIOD,APOGEE,PERIGEE
"GENERATED VIA SPACETRACK.ORG API","JSPOC","23176","BS-3N","PAYLOAD","U","94040B","2016-01-14 11:14:42","852192","0.99154569","0.0005203","8.8742","47.3277","252.4295","157.7138","0","999","7844","0","-1.91e-06","0","1980175","0 BS-3N","1 23176U 94040B   16014.46855153 -.00000191  00000-0  00000+0 0  9996","2 23176   8.8742  47.3277 0005203 252.4295 157.7138  0.99154569 78442","1994-040B","23176","42480.865","1452.278","36124.833","36080.627"
"GENERATED VIA SPACETRACK.ORG API","JSPOC","6236","OSCAR 6","PAYLOAD","U","72082B","2016-01-14 11:15:10","514880","12.5312744","0.0003787","101.63","342.7317","245.1276","232.9235","0","999","97830","0.00013568","-2.3e-07","0","1980249","0 OSCAR 6","1 06236U 72082B   16014.46887170 -.00000023  00000-0  13568-3 0  9991","2 06236 101.6300 342.7317 0003787 245.1276 232.9235 12.53127440978301","1972-082B","6236","7829.577","114.912","1454.407","1448.477"
"GENERATED VIA SPACETRACK.ORG API","JSPOC","28413","SJ-6A","PAYLOAD","U","04035A","2016-01-14 11:15:26","803008","14.94019723","0.0016014","97.8248","23.5817","311.2503","48.7316","0","999","61767","5.8852e-05","5.7e-06","0","1980206","0 SJ-6A","1 28413U 04035A   16014.46906022  .00000570  00000-0  58852-4 0  9995","2 28413  97.8248  23.5817 0016014 311.2503  48.7316 14.94019723617677","2004-035A","28413","6963.554","96.384","596.570","574.267"
"GENERATED VIA SPACETRACK.ORG API","JSPOC","3287","OPS 9344 (IDSCS 23)","PAYLOAD","U","68050D","2016-01-14 11:15:33","384960","1.07639416","0.002522","1.1027","351.9967","129.7205","318.786","0","999","18686","0","-5.2e-07","0","1980147","0 OPS 9344 (IDSCS 23)","1 03287U 68050D   16014.46913640 -.00000052  00000-0  00000+0 0  9991","2 03287   1.1027 351.9967 0025220 129.7205 318.7860  1.07639416186869","1968-050D","3287","40218.044","1337.799","33941.339","33738.479"
"GENERATED VIA SPACETRACK.ORG API","JSPOC","29495","OPTUS D1","PAYLOAD","U","06043B","2016-01-14 11:15:33","384960","1.0027166","0.0002991","0.0522","292.1362","355.5524","154.5455","0","999","3397","0","-1.15e-06","0","1980165","0 OPTUS D1","1 29495U 06043B   16014.46913640 -.00000115  00000-0  00000+0 0  9994","2 29495   0.0522 292.1362 0002991 355.5524 154.5455  1.00271660 33979","2006-043B","29495","42164.767","1436.098","35799.243","35774.020"
"GENERATED VIA SPACETRACK.ORG API","JSPOC","37210","BEIDOU 6","PAYLOAD","U","10057A","2016-01-14 11:15:33","384960","1.00272156","0.0008018","0.8642","46.3547","184.9881","210.9462","0","999","1911","0","-1.16e-06","0","1980189","0 BEIDOU 6","1 37210U 10057A   16014.46913640 -.00000116  00000-0  00000+0 0  9999","2 37210   0.8642  46.3547 0008018 184.9881 210.9462  1.00272156 19110","2010-057A","37210","42164.627","1436.091","35820.300","35752.685"
"GENERATED VIA SPACETRACK.ORG API","JSPOC","27560","MOZHAYETS","PAYLOAD","U","02054B","2016-01-14 11:15:37","153728","14.57408464","0.0040244","98.1305","152.4165","288.1209","71.5599","0","999","69629","9.6035e-05","3.93e-06","0","1980194","0 MOZHAYETS","1 27560U 02054B   16014.46918002  .00000393  00000-0  96035-4 0  9995","2 27560  98.1305 152.4165 0040244 288.1209  71.5599 14.57408464696297","2002-054B","27560","7079.691","98.805","730.047","673.064"
"GENERATED VIA SPACETRACK.ORG API","JSPOC","28366","APRIZESAT 2","PAYLOAD","U","04025A","2016-01-14 11:15:43","488576","14.36519737","0.0108119","98.3372","298.7216","164.5532","195.8998","0","999","60497","4.2016e-05","8.8e-07","0","1980183","0 APRIZESAT 2","1 28366U 04025A   16014.46925334  .00000088  00000-0  42016-4 0  9997","2 28366  98.3372 298.7216 0108119 164.5532 195.8998 14.36519737604971","2004-025A","28366","7148.157","100.242","847.307","692.737"
"GENERATED VIA SPACETRACK.ORG API","JSPOC","33434","CHUANG XIN 1-02(CX-1-02)","PAYLOAD","U","08056B","2016-01-14 11:15:53","718336","14.29344862","0.0015032","98.5902","4.6624","131.2923","228.9555","0","999","37511","2.6668e-05","2.4e-07","0","1980152","0 CHUANG XIN 1-02(CX-1-02)","1 33434U 08056B   16014.46937174  .00000024  00000-0  26668-4 0  9997","2 33434  98.5902   4.6624 0015032 131.2923 228.9555 14.29344862375112","2008-056B","33434","7172.058","100.745","804.704","783.142"
"GENERATED VIA SPACETRACK.ORG API","JSPOC","9057","NOAA 5","PAYLOAD","U","76077A","2016-01-14 11:16:05","811744","12.37772186","0.0009649","101.775","8.5358","178.1836","297.8768","0","999","78370","-5.6905e-05","-5e-07","0","1980262","0 NOAA 5","1 09057U 76077A   16014.46951171 -.00000050  00000-0 -56905-4 0  9990","2 09057 101.7750   8.5358 0009649 178.1836 297.8768 12.37772186783701","1976-077A","9057","7894.198","116.338","1523.680","1508.446"
"GENERATED VIA SPACETRACK.ORG API","JSPOC","13648","COSMOS 1420","PAYLOAD","U","82109A","2016-01-14 11:16:11","470080","14.33724521","0.0021219","73.9959","325.8257","239.9862","259.4974","0","999","73418","3.1767e-05","6.2e-07","0","1980186","0 COSMOS 1420","1 13648U 82109A   16014.46957720  .00000062  00000-0  31767-4 0  9990","2 13648  73.9959 325.8257 0021219 239.9862 259.4974 14.33724521734187","1982-109A","13648","7157.445","100.437","794.497","764.122"
"GENERATED VIA SPACETRACK.ORG API","JSPOC","1430","TIROS 10","PAYLOAD","U","65051A","2016-01-14 11:16:18","178176","14.40119265","0.0057168","98.0828","189.852","30.1736","330.2726","0","999","64829","3.0602e-05","5.8e-07","0","1980184","0 TIROS 10","1 01430U 65051A   16014.46965484  .00000058  00000-0  30602-4 0  9991","2 01430  98.0828 189.8520 0057168  30.1736 330.2726 14.40119265648290","1965-051A","1430","7136.241","99.991","798.902","717.309"
"GENERATED VIA SPACETRACK.ORG API","JSPOC","21102","COSMOS 2127","PAYLOAD","U","91009C","2016-01-14 11:16:19","849152","12.48125553","0.0007693","74.0298","18.7241","281.9605","191.0882","0","999","13563","-6.4678e-05","-2.5e-07","0","1980144","0 COSMOS 2127","1 21102U 91009C   16014.46967418 -.00000025  00000-0 -64678-4 0  9996","2 21102  74.0298  18.7241 0007693 281.9605 191.0882 12.48125553135630","1991-009C","21102","7850.482","115.373","1478.386","1466.307"
"GENERATED VIA SPACETRACK.ORG API","JSPOC","28470","JB-3 C","PAYLOAD","U","04044A","2016-01-14 11:16:20","429760","15.01608985","0.0036539","97.359","315.8585","305.7749","54.0069","0","999","61493","6.4973e-05","7.96e-06","0","1980250","0 JB-3 C","1 28470U 04044A   16014.46968090  .00000796  00000-0  64973-4 0  9992","2 28470  97.3590 315.8585 0036539 305.7749  54.0069 15.01608985614932","2004-044A","28470","6940.071","95.897","587.294","536.578"
"GENERATED VIA SPACETRACK.ORG API","JSPOC","13243","COSMOS 1372","PAYLOAD","U","82052A","2016-01-14 11:16:23","450304","13.85945385","0.0029006","64.9035","95.0201","1.5133","78.5796","0","999","11895","2.2381e-05","-6.4e-07","0","1980195","0 COSMOS 1372","1 13243U 82052A   16014.46971586 -.00000064  00000-0  22381-4 0  9999","2 13243  64.9035  95.0201 0029006   1.5133  78.5796 13.85945385118956","1982-052A","13243","7321.011","103.900","964.111","921.641"
"GENERATED VIA SPACETRACK.ORG API","JSPOC","22690","COSMOS 2255","PAYLOAD","U","93038D","2016-01-14 11:16:28","114176","12.63249456","0.0005301","82.5857","141.0178","1.1359","67.5338","0","999","4083","8.2745e-05","2.6e-07","0","1980147","0 COSMOS 2255","1 22690U 93038D   16014.46976984  .00000026  00000-0  82745-4 0  9995","2 22690  82.5857 141.0178 0005301   1.1359  67.5338 12.63249456 40835","1993-038D","22690","7787.697","113.991","1413.691","1405.434"
"GENERATED VIA SPACETRACK.ORG API","JSPOC","37931","SHIYUAN 4 (SY-4)","PAYLOAD","U","11068B","2016-01-14 11:16:29","605440","14.29839159","0.0014571","98.4841","8.9447","126.5333","233.7195","0","999","21667","2.6028e-05","2.4e-07","0","1980251","0 SHIYUAN 4 (SY-4)","1 37931U 11068B   16014.46978710  .00000024  00000-0  26028-4 0  9991","2 37931  98.4841   8.9447 0014571 126.5333 233.7195 14.29839159216675","2011-068B","37931","7170.405","100.710","802.718","781.822"
"GENERATED VIA SPACETRACK.ORG API","JSPOC","6788","THOR BURNER 2 R/B","ROCKET BODY","U","73054B","2016-01-14 11:16:31","443168","14.25959499","0.0027231","98.7595","172.1228","313.7788","46.1139","0","999","20304","3.9214e-05","4.9e-07","0","1980169","0 THOR BURNER 2 R/B","1 06788U 73054B   16014.46980837  .00000049  00000-0  39214-4 0  9991","2 06788  98.7595 172.1228 0027231 313.7788  46.1139 14.25959499203049","1973-054B","6788","7183.405","100.984","824.831","785.709"
"GENERATED VIA SPACETRACK.ORG API","JSPOC","28898","MOZ.5/SAFIR/RUBIN 5/SL-8","PAYLOAD","U","05043G","2016-01-14 11:16:38","640288","14.60036621","0.0020382","97.8597","182.9842","26.0067","334.2154","0","999","54399","5.381e-05","2.15e-06","0","1980194","0 MOZ.5/SAFIR/RUBIN 5/SL-8","1 28898U 05043G   16014.46989167  .00000215  00000-0  53810-4 0  9998","2 28898  97.8597 182.9842 0020382  26.0067 334.2154 14.60036621543993","2005-043G","28898","7071.192","98.627","707.470","678.645"
"GENERATED VIA SPACETRACK.ORG API","JSPOC","37765","SJ-11-02","PAYLOAD","U","11039A","2016-01-14 11:16:42","187872","14.60859851","0.0011406","98.2988","148.7173","211.0337","149.0193","0","999","23782","6.2722e-05","2.59e-06","0","1980244","0 SJ-11-02","1 37765U 11039A   16014.46993273  .00000259  00000-0  62722-4 0  9996","2 37765  98.2988 148.7173 0011406 211.0337 149.0193 14.60859851237820","2011-039A","37765","7068.535","98.572","698.463","682.338"
